INMARSAT 3-F3           
1 24674U 96070A   26087.78382108 -.00000371  00000+0  00000+0 0  9995
2 24674  10.1462  50.4074 0005882 293.2173 251.9723  0.99992712107105
