{
  "norad_id": 24674,
  "name": "INMARSAT 3-F3",
  "history": [
    {
      "epoch": "2026-03-28T18:48:42.141312Z",
      "apogee_km": 35889.86110727944,
      "perigee_km": 35840.161198614536,
      "latitude_deg": -0.8973513184902657,
      "longitude_deg": 127.09997861903925,
      "height_km": 35872.450675496475,
      "semi_major_axis_km": 42243.14815294699,
      "eccentricity": 0.00058826,
      "inclination_deg": 10.1462,
      "raan_deg": 50.4074,
      "arg_perigee_deg": 293.2173,
      "mean_anomaly_deg": 251.9723,
      "mean_motion_rev_day": 0.99992712
    }
  ]
}